STARLINK-4284           
1 53023U 22076AP  26068.26342437  .00001468  00000+0  11026-3 0  9994
2 53023  53.2165  86.0255 0001395  78.7498 281.3651 15.08843628202920
SEDNA-2                 
1 63153U 25009DQ  26068.79893845  .00008085  00000+0  49393-3 0  9990
2 63153  97.4615 144.8075 0010309  53.0260 307.1912 15.10492622 63116
